{
  "type": "FeatureCollection",
  "features": [
    {
      "type": "Feature",
      "properties": {
        "norad_id": 40069,
        "name": "METEOR-M 2",
        "group": "weather",
        "lat": 74.43540095575321,
        "lon": -60.97420336057991,
        "alt_km": 814.8237143462629,
        "timestamp": "2025-12-20T03:42:47.035391+00:00",
        "meta_object_name": "METEOR-M 2",
        "meta_object_id": "2014-037A",
        "meta_epoch": "2025-12-19T20:35:40.100928",
        "meta_mean_motion": 14.2138909,
        "meta_eccentricity": 0.0005365,
        "meta_inclination": 98.49,
        "meta_ra_of_asc_node": 331.1696,
        "meta_arg_of_pericenter": 187.2258,
        "meta_mean_anomaly": 172.8844,
        "meta_ephemeris_type": 0,
        "meta_classification_type": "U",
        "meta_norad_cat_id": 40069,
        "meta_element_set_no": 999,
        "meta_rev_at_epoch": 59384,
        "meta_bstar": 7.9599e-05,
        "meta_mean_motion_dot": 1.32e-06,
        "meta_mean_motion_ddot": 0,
        "tle_line1": "1 40069U 14037A   25353.85810302  .00000132  00000+0  79599-4 0  9997",
        "tle_line2": "2 40069  98.4900 331.1696 0005365 187.2258 172.8844 14.21389090593842"
      },
      "geometry": {
        "type": "Point",
        "coordinates": [
          -60.97420336057991,
          74.43540095575321
        ]
      }
    },
    {
      "type": "Feature",
      "properties": {
        "norad_id": 40267,
        "name": "HIMAWARI-8",
        "group": "weather",
        "lat": -0.013103808521920507,
        "lon": -74.65386291738231,
        "alt_km": 35782.65738523457,
        "timestamp": "2025-12-20T03:42:47.035403+00:00",
        "meta_object_name": "HIMAWARI-8",
        "meta_object_id": "2014-060A",
        "meta_epoch": "2025-12-19T19:04:03.567072",
        "meta_mean_motion": 1.00271352,
        "meta_eccentricity": 8.59e-05,
        "meta_inclination": 0.0293,
        "meta_ra_of_asc_node": 121.6816,
        "meta_arg_of_pericenter": 172.8726,
        "meta_mean_anomaly": 220.7679,
        "meta_ephemeris_type": 0,
        "meta_classification_type": "U",
        "meta_norad_cat_id": 40267,
        "meta_element_set_no": 999,
        "meta_rev_at_epoch": 4096,
        "meta_bstar": 0,
        "meta_mean_motion_dot": -2.51e-06,
        "meta_mean_motion_ddot": 0,
        "tle_line1": "1 40267U 14060A   25353.79448573 -.00000251  00000+0  00000+0 0  9992",
        "tle_line2": "2 40267   0.0293 121.6816 0000859 172.8726 220.7679  1.00271352 40968"
      },
      "geometry": {
        "type": "Point",
        "coordinates": [
          -74.65386291738231,
          -0.013103808521920507
        ]
      }
    },
    {
      "type": "Feature",
      "properties": {
        "norad_id": 40367,
        "name": "FENGYUN 2G",
        "group": "weather",
        "lat": 0.9701689910308569,
        "lon": -115.99437958298513,
        "alt_km": 35779.44703405512,
        "timestamp": "2025-12-20T03:42:47.035415+00:00",
        "meta_object_name": "FENGYUN 2G",
        "meta_object_id": "2014-090A",
        "meta_epoch": "2025-12-19T18:56:11.651136",
        "meta_mean_motion": 1.00261653,
        "meta_eccentricity": 0.0002678,
        "meta_inclination": 5.1853,
        "meta_ra_of_asc_node": 75.0175,
        "meta_arg_of_pericenter": 203.1106,
        "meta_mean_anomaly": 193.8582,
        "meta_ephemeris_type": 0,
        "meta_classification_type": "U",
        "meta_norad_cat_id": 40367,
        "meta_element_set_no": 999,
        "meta_rev_at_epoch": 4020,
        "meta_bstar": 0,
        "meta_mean_motion_dot": -2.79e-06,
        "meta_mean_motion_ddot": 0,
        "tle_line1": "1 40367U 14090A   25353.78902374 -.00000279  00000+0  00000+0 0  9999",
        "tle_line2": "2 40367   5.1853  75.0175 0002678 203.1106 193.8582  1.00261653 40201"
      },
      "geometry": {
        "type": "Point",
        "coordinates": [
          -115.99437958298513,
          0.9701689910308569
        ]
      }
    },
    {
      "type": "Feature",
      "properties": {
        "norad_id": 40732,
        "name": "METEOSAT-11 (MSG-4)",
        "group": "weather",
        "lat": 2.7389068669413814,
        "lon": 153.8692051536895,
        "alt_km": 35784.22255722532,
        "timestamp": "2025-12-20T03:42:47.035427+00:00",
        "meta_object_name": "METEOSAT-11 (MSG-4)",
        "meta_object_id": "2015-034A",
        "meta_epoch": "2025-12-19T18:26:37.153248",
        "meta_mean_motion": 1.0026969,
        "meta_eccentricity": 8.45e-05,
        "meta_inclination": 2.7536,
        "meta_ra_of_asc_node": 71.9835,
        "meta_arg_of_pericenter": 136.1674,
        "meta_mean_anomaly": 166.3221,
        "meta_ephemeris_type": 0,
        "meta_classification_type": "U",
        "meta_norad_cat_id": 40732,
        "meta_element_set_no": 999,
        "meta_rev_at_epoch": 541,
        "meta_bstar": 0,
        "meta_mean_motion_dot": 8.3e-07,
        "meta_mean_motion_ddot": 0,
        "tle_line1": "1 40732U 15034A   25353.76848557  .00000083  00000+0  00000+0 0  9996",
        "tle_line2": "2 40732   2.7536  71.9835 0000845 136.1674 166.3221  1.00269690  5413"
      },
      "geometry": {
        "type": "Point",
        "coordinates": [
          153.8692051536895,
          2.7389068669413814
        ]
      }
    },
    {
      "type": "Feature",
      "properties": {
        "norad_id": 41105,
        "name": "ELEKTRO-L 2",
        "group": "weather",
        "lat": 5.281830726881694,
        "lon": 130.03377349084008,
        "alt_km": 35798.40073854944,
        "timestamp": "2025-12-20T03:42:47.035439+00:00",
        "meta_object_name": "ELEKTRO-L 2",
        "meta_object_id": "2015-074A",
        "meta_epoch": "2025-12-19T09:46:17.993280",
        "meta_mean_motion": 1.00272637,
        "meta_eccentricity": 0.0003545,
        "meta_inclination": 6.2415,
        "meta_ra_of_asc_node": 72.7491,
        "meta_arg_of_pericenter": 209.2952,
        "meta_mean_anomaly": 298.3067,
        "meta_ephemeris_type": 0,
        "meta_classification_type": "U",
        "meta_norad_cat_id": 41105,
        "meta_element_set_no": 999,
        "meta_rev_at_epoch": 3670,
        "meta_bstar": 0,
        "meta_mean_motion_dot": -9.8e-07,
        "meta_mean_motion_ddot": 0,
        "tle_line1": "1 41105U 15074A   25353.40715270 -.00000098  00000+0  00000+0 0  9998",
        "tle_line2": "2 41105   6.2415  72.7491 0003545 209.2952 298.3067  1.00272637 36706"
      },
      "geometry": {
        "type": "Point",
        "coordinates": [
          130.03377349084008,
          5.281830726881694
        ]
      }
    },
    {
      "type": "Feature",
      "properties": {
        "norad_id": 41752,
        "name": "INSAT-3DR",
        "group": "weather",
        "lat": 0.060187380947175025,
        "lon": -141.46204581091627,
        "alt_km": 35749.990994297725,
        "timestamp": "2025-12-20T03:42:47.035451+00:00",
        "meta_object_name": "INSAT-3DR",
        "meta_object_id": "2016-054A",
        "meta_epoch": "2025-12-19T19:07:12.495360",
        "meta_mean_motion": 1.00271614,
        "meta_eccentricity": 0.0014134,
        "meta_inclination": 0.1091,
        "meta_ra_of_asc_node": 86.4186,
        "meta_arg_of_pericenter": 185.1345,
        "meta_mean_anomaly": 177.8779,
        "meta_ephemeris_type": 0,
        "meta_classification_type": "U",
        "meta_norad_cat_id": 41752,
        "meta_element_set_no": 999,
        "meta_rev_at_epoch": 3402,
        "meta_bstar": 0,
        "meta_mean_motion_dot": -5.3e-07,
        "meta_mean_motion_ddot": 0,
        "tle_line1": "1 41752U 16054A   25353.79667240 -.00000053  00000+0  00000+0 0  9991",
        "tle_line2": "2 41752   0.1091  86.4186 0014134 185.1345 177.8779  1.00271614 34022"
      },
      "geometry": {
        "type": "Point",
        "coordinates": [
          -141.46204581091627,
          0.060187380947175025
        ]
      }
    },
    {
      "type": "Feature",
      "properties": {
        "norad_id": 41836,
        "name": "HIMAWARI-9",
        "group": "weather",
        "lat": -0.04253336138832702,
        "lon": -74.61356825311873,
        "alt_km": 35783.26307612803,
        "timestamp": "2025-12-20T03:42:47.035464+00:00",
        "meta_object_name": "HIMAWARI-9",
        "meta_object_id": "2016-064A",
        "meta_epoch": "2025-12-19T12:13:16.056768",
        "meta_mean_motion": 1.00265738,
        "meta_eccentricity": 0.000173,
        "meta_inclination": 0.0186,
        "meta_ra_of_asc_node": 351.5556,
        "meta_arg_of_pericenter": 344.8328,
        "meta_mean_anomaly": 76.0224,
        "meta_ephemeris_type": 0,
        "meta_classification_type": "U",
        "meta_norad_cat_id": 41836,
        "meta_element_set_no": 999,
        "meta_rev_at_epoch": 3340,
        "meta_bstar": 0,
        "meta_mean_motion_dot": 0,
        "meta_mean_motion_ddot": 0,
        "tle_line1": "1 41836U 16064A   25353.50921362  .00000000  00000+0  00000+0 0  9993",
        "tle_line2": "2 41836   0.0186 351.5556 0001730 344.8328  76.0224  1.00265738 33405"
      },
      "geometry": {
        "type": "Point",
        "coordinates": [
          -74.61356825311873,
          -0.04253336138832702
        ]
      }
    }
  ]
}